SENTINEL-6              
1 46984U 20086A   23331.15611553 -.00000057  00000+0  16368-4 0  9996
2 46984  66.0411 272.9650 0007838 269.1258  90.8859 12.80931495140940
